start=new Date('2021-12-05T00:00:00.000Z').valueOf();
sats=[{"NORAD_CAT_ID":"45237","OBJECT_NAME":"STARLINK-1270","MEAN_ANOMALY":"265.6971","OBJECT_TYPE":"PAYLOAD","OBJECT_ID":"2020-012BM","PERIOD":"95.592","EPHEMERIS_TYPE":"0","DECAY_DATE":null,"EPOCH":"2021-12-04T17:54:57.785760","MEAN_ELEMENT_THEORY":"SGP4","RCS_SIZE":"LARGE","TIME_SYSTEM":"UTC","BSTAR":"0.00006842600000","PERIAPSIS":"545.735","CLASSIFICATION_TYPE":"U","REV_AT_EPOCH":"10088","TLE_LINE2":"2 45237  53.0544 151.5302 0002153  94.4264 265.6971 15.06395843100888","INCLINATION":"53.0544","CENTER_NAME":"EARTH","REF_FRAME":"TEME","TLE_LINE1":"1 45237U 20012BM  21338.74650215  .00000737  00000-0  68426-4 0  9990","MEAN_MOTION_DDOT":"0.0000000000000","ARG_OF_PERICENTER":"94.4264","ECCENTRICITY":"0.00021530","APOAPSIS":"548.717","RA_OF_ASC_NODE":"151.5302","COUNTRY_CODE":"US","LAUNCH_DATE":"2020-02-17","GP_ID":"191100803","SITE":"AFETR","FILE":"3232651","MEAN_MOTION":"15.06395843","SEMIMAJOR_AXIS":"6925.361","ELEMENT_SET_NO":"999","MEAN_MOTION_DOT":"0.00000737"},{"BSTAR":"0.00004422700000","PERIAPSIS":"545.883","EPOCH":"2021-12-04T13:44:09.914208","DECAY_DATE":null,"EPHEMERIS_TYPE":"0","TIME_SYSTEM":"UTC","RCS_SIZE":"LARGE","MEAN_ELEMENT_THEORY":"SGP4","PERIOD":"95.593","OBJECT_ID":"2020-019A","OBJECT_TYPE":"PAYLOAD","OBJECT_NAME":"STARLINK-1279","NORAD_CAT_ID":"45360","MEAN_ANOMALY":"302.2034","SEMIMAJOR_AXIS":"6925.385","FILE":"3232651","MEAN_MOTION":"15.06388126","GP_ID":"191102318","LAUNCH_DATE":"2020-03-18","SITE":"AFETR","MEAN_MOTION_DOT":"0.00000377","ELEMENT_SET_NO":"999","COUNTRY_CODE":"US","RA_OF_ASC_NODE":"282.3014","APOAPSIS":"548.617","ARG_OF_PERICENTER":"57.9147","MEAN_MOTION_DDOT":"0.0000000000000","TLE_LINE1":"1 45360U 20019A   21338.57233697  .00000377  00000-0  44227-4 0  9999","ECCENTRICITY":"0.00019740","REV_AT_EPOCH":"9559","TLE_LINE2":"2 45360  53.0550 282.3014 0001974  57.9147 302.2034 15.06388126 95594","CLASSIFICATION_TYPE":"U","REF_FRAME":"TEME","CENTER_NAME":"EARTH","INCLINATION":"53.0550"},{"BSTAR":"0.00005358900000","PERIAPSIS":"545.923","EPHEMERIS_TYPE":"0","DECAY_DATE":null,"EPOCH":"2021-12-04T03:53:40.918560","MEAN_ELEMENT_THEORY":"SGP4","TIME_SYSTEM":"UTC","RCS_SIZE":"LARGE","OBJECT_TYPE":"PAYLOAD","PERIOD":"95.593","OBJECT_ID":"2020-019B","NORAD_CAT_ID":"45361","OBJECT_NAME":"STARLINK-1301","MEAN_ANOMALY":"304.4666","GP_ID":"191045672","SITE":"AFETR","LAUNCH_DATE":"2020-03-18","FILE":"3232133","MEAN_MOTION":"15.06389805","SEMIMAJOR_AXIS":"6925.380","ELEMENT_SET_NO":"999","MEAN_MOTION_DOT":"0.00000516","APOAPSIS":"548.566","COUNTRY_CODE":"US","RA_OF_ASC_NODE":"294.1418","TLE_LINE1":"1 45361U 20019B   21338.16227915  .00000516  00000-0  53589-4 0  9997","MEAN_MOTION_DDOT":"0.0000000000000","ARG_OF_PERICENTER":"55.6503","ECCENTRICITY":"0.00019080","CLASSIFICATION_TYPE":"U","REV_AT_EPOCH":"9540","TLE_LINE2":"2 45361  53.0549 294.1418 0001908  55.6503 304.4666 15.06389805 95400","INCLINATION":"53.0549","CENTER_NAME":"EARTH","REF_FRAME":"TEME"},{"NORAD_CAT_ID":"45362","OBJECT_NAME":"STARLINK-1306","MEAN_ANOMALY":"305.4745","PERIOD":"95.592","OBJECT_ID":"2020-019C","OBJECT_TYPE":"PAYLOAD","DECAY_DATE":null,"EPHEMERIS_TYPE":"0","EPOCH":"2021-12-04T20:55:24.841056","MEAN_ELEMENT_THEORY":"SGP4","RCS_SIZE":"LARGE","TIME_SYSTEM":"UTC","BSTAR":"-0.00002701100000","PERIAPSIS":"546.056","CLASSIFICATION_TYPE":"U","TLE_LINE2":"2 45362  53.0550 310.9567 0001689  54.6401 305.4745 15.06396097 95227","REV_AT_EPOCH":"9522","INCLINATION":"53.0550","REF_FRAME":"TEME","CENTER_NAME":"EARTH","MEAN_MOTION_DDOT":"0.0000000000000","TLE_LINE1":"1 45362U 20019C   21338.87181529 -.00000684  00000-0 -27011-4 0  9995","ARG_OF_PERICENTER":"54.6401","ECCENTRICITY":"0.00016890","APOAPSIS":"548.395","RA_OF_ASC_NODE":"310.9567","COUNTRY_CODE":"US","GP_ID":"191100817","LAUNCH_DATE":"2020-03-18","SITE":"AFETR","SEMIMAJOR_AXIS":"6925.361","FILE":"3232651","MEAN_MOTION":"15.06396097","ELEMENT_SET_NO":"999","MEAN_MOTION_DOT":"-0.00000684"},{"OBJECT_TYPE":"PAYLOAD","PERIOD":"95.592","OBJECT_ID":"2020-019E","MEAN_ANOMALY":"297.1124","OBJECT_NAME":"STARLINK-1313","NORAD_CAT_ID":"45364","PERIAPSIS":"545.902","BSTAR":"0.00011991000000","TIME_SYSTEM":"UTC","RCS_SIZE":"LARGE","MEAN_ELEMENT_THEORY":"SGP4","EPOCH":"2021-12-04T13:38:50.409600","EPHEMERIS_TYPE":"0","DECAY_DATE":null,"ECCENTRICITY":"0.00018850","ARG_OF_PERICENTER":"63.0057","TLE_LINE1":"1 45364U 20019E   21338.56863900  .00001505  00000-0  11991-3 0  9993","MEAN_MOTION_DDOT":"0.0000000000000","CENTER_NAME":"EARTH","REF_FRAME":"TEME","INCLINATION":"53.0550","TLE_LINE2":"2 45364  53.0550 282.3218 0001885  63.0057 297.1124 15.06401935 95599","REV_AT_EPOCH":"9559","CLASSIFICATION_TYPE":"U","MEAN_MOTION_DOT":"0.00001505","ELEMENT_SET_NO":"999","MEAN_MOTION":"15.06401935","FILE":"3232651","SEMIMAJOR_AXIS":"6925.343","LAUNCH_DATE":"2020-03-18","GP_ID":"191101568","SITE":"AFETR","RA_OF_ASC_NODE":"282.3218","COUNTRY_CODE":"US","APOAPSIS":"548.513"},{"TLE_LINE2":"2 45365  53.0027 291.8672 0001630  66.6967 293.4192 15.05579885 95442","REV_AT_EPOCH":"9544","CLASSIFICATION_TYPE":"U","CENTER_NAME":"EARTH","REF_FRAME":"TEME","INCLINATION":"53.0027","ARG_OF_PERICENTER":"66.6967","TLE_LINE1":"1 45365U 20019F   21338.67049519 -.00002475  00000-0 -15074-3 0  9993","MEAN_MOTION_DDOT":"0.0000000000000","ECCENTRICITY":"0.00016300","COUNTRY_CODE":"US","RA_OF_ASC_NODE":"291.8672","APOAPSIS":"550.857","SEMIMAJOR_AXIS":"6927.863","FILE":"3232651","MEAN_MOTION":"15.05579885","SITE":"AFETR","GP_ID":"191101819","LAUNCH_DATE":"2020-03-18","MEAN_MOTION_DOT":"-0.00002475","ELEMENT_SET_NO":"999","OBJECT_NAME":"STARLINK-1317","NORAD_CAT_ID":"45365","MEAN_ANOMALY":"293.4192","OBJECT_TYPE":"PAYLOAD","OBJECT_ID":"2020-019F","PERIOD":"95.644","EPOCH":"2021-12-04T16:05:30.784416","EPHEMERIS_TYPE":"0","DECAY_DATE":null,"RCS_SIZE":"LARGE","TIME_SYSTEM":"UTC","MEAN_ELEMENT_THEORY":"SGP4","BSTAR":"-0.00015074000000","PERIAPSIS":"548.599"},{"MEAN_ANOMALY":"303.0800","OBJECT_NAME":"STARLINK-1262","NORAD_CAT_ID":"45366","OBJECT_ID":"2020-019G","PERIOD":"95.592","OBJECT_TYPE":"PAYLOAD","RCS_SIZE":"LARGE","TIME_SYSTEM":"UTC","MEAN_ELEMENT_THEORY":"SGP4","EPOCH":"2021-12-04T15:47:34.465056","DECAY_DATE":null,"EPHEMERIS_TYPE":"0","PERIAPSIS":"545.918","BSTAR":"0.00015765000000","REF_FRAME":"TEME","CENTER_NAME":"EARTH","INCLINATION":"53.0549","TLE_LINE2":"2 45366  53.0549 311.9117 0001878  57.0369 303.0800 15.06398433 95201","REV_AT_EPOCH":"9520","CLASSIFICATION_TYPE":"U","ECCENTRICITY":"0.00018780","ARG_OF_PERICENTER":"57.0369","MEAN_MOTION_DDOT":"0.0000000000000","TLE_LINE1":"1 45366U 20019G   21338.65803779  .00002067  00000-0  15765-3 0  9990","RA_OF_ASC_NODE":"311.9117","COUNTRY_CODE":"US","APOAPSIS":"548.519","MEAN_MOTION_DOT":"0.00002067","ELEMENT_SET_NO":"999","FILE":"3232651","SEMIMAJOR_AXIS":"6925.353","MEAN_MOTION":"15.06398433","GP_ID":"191100567","LAUNCH_DATE":"2020-03-18","SITE":"AFETR"},{"OBJECT_NAME":"STARLINK-1273","NORAD_CAT_ID":"45367","MEAN_ANOMALY":"303.3045","OBJECT_TYPE":"PAYLOAD","OBJECT_ID":"2020-019H","PERIOD":"95.593","EPOCH":"2021-12-04T09:57:14.285088","EPHEMERIS_TYPE":"0","DECAY_DATE":null,"TIME_SYSTEM":"UTC","RCS_SIZE":"LARGE","MEAN_ELEMENT_THEORY":"SGP4","BSTAR":"0.00002313300000","PERIAPSIS":"545.906","TLE_LINE2":"2 45367  53.0557 313.0192 0001919  56.8127 303.3045 15.06392877 95167","REV_AT_EPOCH":"9516","CLASSIFICATION_TYPE":"U","CENTER_NAME":"EARTH","REF_FRAME":"TEME","INCLINATION":"53.0557","ARG_OF_PERICENTER":"56.8127","TLE_LINE1":"1 45367U 20019H   21338.41474867  .00000063  00000-0  23133-4 0  9990","MEAN_MOTION_DDOT":"0.0000000000000","ECCENTRICITY":"0.00019190","RA_OF_ASC_NODE":"313.0192","COUNTRY_CODE":"US","APOAPSIS":"548.564","FILE":"3232651","SEMIMAJOR_AXIS":"6925.370","MEAN_MOTION":"15.06392877","SITE":"AFETR","GP_ID":"191101317","LAUNCH_DATE":"2020-03-18","MEAN_MOTION_DOT":"0.00000063","ELEMENT_SET_NO":"999"},{"EPHEMERIS_TYPE":"0","DECAY_DATE":null,"EPOCH":"2021-12-04T15:36:57.689280","MEAN_ELEMENT_THEORY":"SGP4","RCS_SIZE":"LARGE","TIME_SYSTEM":"UTC","BSTAR":"0.00003680600000","PERIAPSIS":"545.455","NORAD_CAT_ID":"45368","OBJECT_NAME":"STARLINK-1276","MEAN_ANOMALY":"311.6230","OBJECT_TYPE":"PAYLOAD","PERIOD":"95.593","OBJECT_ID":"2020-019J","APOAPSIS":"549.041","COUNTRY_CODE":"US","RA_OF_ASC_NODE":"311.9490","SITE":"AFETR","GP_ID":"191102068","LAUNCH_DATE":"2020-03-18","MEAN_MOTION":"15.06388676","FILE":"3232651","SEMIMAJOR_AXIS":"6925.383","ELEMENT_SET_NO":"999","MEAN_MOTION_DOT":"0.00000266","CLASSIFICATION_TYPE":"U","TLE_LINE2":"2 45368  53.0543 311.9490 0002589  48.4981 311.6230 15.06388676 95205","REV_AT_EPOCH":"9520","INCLINATION":"53.0543","CENTER_NAME":"EARTH","REF_FRAME":"TEME","TLE_LINE1":"1 45368U 20019J   21338.65066770  .00000266  00000-0  36806-4 0  9993","MEAN_MOTION_DDOT":"0.0000000000000","ARG_OF_PERICENTER":"48.4981","ECCENTRICITY":"0.00025890"},{"NORAD_CAT_ID":"45369","OBJECT_NAME":"STARLINK-1277","MEAN_ANOMALY":"298.1111","OBJECT_TYPE":"PAYLOAD","OBJECT_ID":"2020-019K","PERIOD":"95.593","EPHEMERIS_TYPE":"0","DECAY_DATE":null,"EPOCH":"2021-12-04T17:11:08.409120","MEAN_ELEMENT_THEORY":"SGP4","TIME_SYSTEM":"UTC","RCS_SIZE":"LARGE","BSTAR":"-0.00011366000000","PERIAPSIS":"546.143","CLASSIFICATION_TYPE":"U","REV_AT_EPOCH":"9521","TLE_LINE2":"2 45369  53.0559 311.6628 0001595  62.0039 298.1111 15.06388839 95214","INCLINATION":"53.0559","CENTER_NAME":"EARTH","REF_FRAME":"TEME","TLE_LINE1":"1 45369U 20019K   21338.71606955 -.00001974  00000-0 -11366-3 0  9998","MEAN_MOTION_DDOT":"0.0000000000000","ARG_OF_PERICENTER":"62.0039","ECCENTRICITY":"0.00015950","APOAPSIS":"548.352","COUNTRY_CODE":"US","RA_OF_ASC_NODE":"311.6628","GP_ID":"191102319","LAUNCH_DATE":"2020-03-18","SITE":"AFETR","FILE":"3232651","MEAN_MOTION":"15.06388839","SEMIMAJOR_AXIS":"6925.383","ELEMENT_SET_NO":"999","MEAN_MOTION_DOT":"-0.00001974"}];
